[{"OBJECT_NAME":"ION SCV-004","OBJECT_ID":"2022-002K","EPOCH":"2026-03-09T16:32:03.244416","MEAN_MOTION":15.29369331,"ECCENTRICITY":0.00072157,"INCLINATION":97.2961,"RA_OF_ASC_NODE":128.2294,"ARG_OF_PERICENTER":1.6783,"MEAN_ANOMALY":358.448,"EPHEMERIS_TYPE":0,"CLASSIFICATION_TYPE":"U","NORAD_CAT_ID":50993,"ELEMENT_SET_NO":999,"REV_AT_EPOCH":23008,"BSTAR":0.00023198467,"MEAN_MOTION_DOT":6.538e-5,"MEAN_MOTION_DDOT":0},{"OBJECT_NAME":"STARLINK-33715","OBJECT_ID":"2025-069J","EPOCH":"2026-03-09T11:52:52.040928","MEAN_MOTION":15.30177054,"ECCENTRICITY":0.00011892,"INCLINATION":53.1577,"RA_OF_ASC_NODE":143.4675,"ARG_OF_PERICENTER":75.5343,"MEAN_ANOMALY":284.579,"EPHEMERIS_TYPE":0,"CLASSIFICATION_TYPE":"U","NORAD_CAT_ID":63441,"ELEMENT_SET_NO":999,"REV_AT_EPOCH":5337,"BSTAR":0.00086347613,"MEAN_MOTION_DOT":0.00025283,"MEAN_MOTION_DDOT":0}]
