ION SCV-004             
1 50993U 22002K   26068.68892644  .00006538  00000+0  23198-3 0  9998
2 50993  97.2961 128.2294 0007216   1.6783 358.4480 15.29369331230088
STARLINK-33715          
1 63441U 25069J   26068.49504677  .00025283  00000+0  86348-3 0  9995
2 63441  53.1577 143.4675 0001189  75.5343 284.5790 15.30177054 53370
